OBJECT_NAME,OBJECT_ID,EPOCH,MEAN_MOTION,ECCENTRICITY,INCLINATION,RA_OF_ASC_NODE,ARG_OF_PERICENTER,MEAN_ANOMALY,EPHEMERIS_TYPE,CLASSIFICATION_TYPE,NORAD_CAT_ID,ELEMENT_SET_NO,REV_AT_EPOCH,BSTAR,MEAN_MOTION_DOT,MEAN_MOTION_DDOT
STARLINK-36310,2026-054N,2026-06-22T16:42:23.707872,15.49341785,.00006913,53.1601,163.1074,85.5018,274.6071,0,U,68244,999,1515,.42680913E-3,.23387E-3,0
STARLINK-36247,2026-054P,2026-06-22T20:00:01.999872,15.35411324,.00012997,53.1586,161.2584,101.3139,184.0727,0,U,68245,999,581,.20985783E-2,.73566E-3,0
STARLINK-37043,2026-054Q,2026-06-22T09:19:17.253696,15.49328779,.00009491,53.1586,164.7494,88.7257,271.3861,0,U,68246,999,1510,.93522602E-3,.51948E-3,0
STARLINK-37044,2026-054R,2026-06-22T16:10:28.556832,15.40454784,.00011263,53.1585,161.5357,287.0898,72.9984,0,U,68247,999,1517,-.20896994E-1,-.788089E-2,0
STARLINK-36997,2026-054S,2026-06-22T12:56:59.996256,15.30206457,.0000916,53.1558,169.9781,86.8680,273.2426,0,U,68248,999,1504,.40587263E-3,.11683E-3,0
STARLINK-37141,2026-054T,2026-06-21T16:56:35.604096,15.49320635,.0004038,53.1570,166.1649,21.0240,339.0934,0,U,68249,999,1502,.80462705E-3,.44585E-3,0
STARLINK-37087,2026-054U,2026-06-22T16:49:51.596832,15.49337624,.00012571,53.1591,163.8647,92.0478,268.0676,0,U,68250,999,1514,.58611439E-3,.32317E-3,0
STARLINK-36274,2026-054V,2026-06-22T09:35:13.165152,15.30202726,.00011169,53.1584,170.5171,74.8471,285.2654,0,U,68251,999,1502,.49214222E-3,.14246E-3,0
STARLINK-37085,2026-054W,2026-06-22T06:00:40.474080,15.34398071,.00011724,53.1605,163.8646,84.6636,275.4501,0,U,68252,999,1510,.49010052E-3,.16217E-3,0
STARLINK-37086,2026-054X,2026-06-22T20:00:01.999872,15.35342619,.00019105,53.1596,161.1994,85.7565,230.2001,0,U,68253,999,592,.22221874E-2,.77795E-3,0
STARLINK-37084,2026-054Y,2026-06-22T09:17:21.247872,15.34402207,.00006702,53.1589,163.2996,37.2238,322.8810,0,U,68254,999,1512,.59257258E-3,.19699E-3,0
STARLINK-37075,2026-054Z,2026-06-22T16:39:11.298528,15.49335138,.00011715,53.1596,163.0942,73.0676,287.0461,0,U,68255,999,1515,.45687711E-3,.25066E-3,0
STARLINK-36333,2026-054AA,2026-06-22T09:45:51.338880,15.30207812,.0000991,53.1569,170.5564,83.9983,276.1131,0,U,68256,999,1502,.49696171E-3,.14392E-3,0
STARLINK-36745,2026-054AB,2026-06-22T06:03:41.552928,15.34402111,.00011526,53.1585,163.8242,88.4803,271.6332,0,U,68257,999,1510,.57439355E-3,.19081E-3,0
STARLINK-36890,2026-054AC,2026-06-22T06:17:59.752896,15.30200658,.00017515,53.1596,171.0700,94.3876,265.7324,0,U,68258,999,1500,.47826129E-3,.13832E-3,0
STARLINK-36323,2026-054AD,2026-06-22T16:51:32.448960,15.49330504,.00012595,53.1588,163.1485,92.0462,268.0691,0,U,68259,999,1514,.66932545E-3,.36981E-3,0
STARLINK-37056,2026-054AE,2026-06-21T08:57:59.106528,15.47899568,.00036684,53.1572,167.6351,78.9737,281.1684,0,U,68260,999,1497,-.71415428E-2,-.36165E-2,0
TEN-KOH 2,2025-241B,2026-06-22T17:18:16.125408,15.23955813,.00056177,51.6693,293.2929,157.9978,202.1242,0,U,68261,999,1575,.17685113E-3,.4002E-4,0
STARLINK-37162,2026-055A,2026-06-22T07:30:11.407392,15.34398204,.00013485,53.1591,191.5691,89.5161,270.5996,0,U,68262,999,1597,.57120548E-3,.18971E-3,0
STARLINK-37156,2026-055B,2026-06-22T07:39:58.923072,15.34400608,.00013928,53.1587,193.0391,89.9504,270.1658,0,U,68263,999,1595,.56101576E-3,.18626E-3,0
STARLINK-37163,2026-055C,2026-06-22T10:13:32.859264,15.34391181,.00008371,53.1566,190.8583,86.4965,273.6133,0,U,68264,999,1599,.56189972E-3,.1865E-3,0
STARLINK-37133,2026-055D,2026-06-22T07:49:04.284192,15.34394854,.00010772,53.1578,193.0739,83.0000,277.1125,0,U,68265,999,1595,.34825915E-3,.11406E-3,0
STARLINK-37042,2026-055E,2026-06-22T07:42:16.578144,15.34382466,.00010096,53.1586,191.6233,68.7667,291.3443,0,U,68266,999,1597,.4113265E-3,.13539E-3,0
STARLINK-37103,2026-055F,2026-06-22T07:51:16.178112,15.34394598,.00010175,53.1576,190.9506,55.2722,304.8377,0,U,68267,999,1598,.58780091E-3,.19532E-3,0
STARLINK-36999,2026-055G,2026-06-22T11:04:54.901920,15.34395104,.00011355,53.1575,190.3388,87.5136,272.5997,0,U,68268,999,1600,.25183342E-3,.814E-4,0
STARLINK-36962,2026-055H,2026-06-22T11:17:02.301792,15.34404726,.00011474,53.1571,190.3992,86.8247,273.2887,0,U,68269,999,1600,.36434381E-3,.11955E-3,0
STARLINK-37028,2026-055J,2026-06-22T07:30:53.696736,15.34391945,.00012677,53.1591,192.9987,80.5830,279.5316,0,U,68270,999,1595,.4308711E-3,.14205E-3,0
STARLINK-37029,2026-055K,2026-06-22T10:01:25.555296,15.34395914,.00010004,53.1571,190.8024,89.1860,270.9257,0,U,68271,999,1599,.35474799E-3,.11627E-3,0
STARLINK-36974,2026-055L,2026-06-22T10:29:31.792992,15.34395995,.00013009,53.1586,193.0869,77.1151,282.9997,0,U,68272,999,1596,.35092037E-3,.11497E-3,0
STARLINK-37019,2026-055M,2026-06-22T10:16:34.457376,15.34395749,.00009481,53.1568,190.8691,82.3875,277.7235,0,U,68273,999,1599,.32007562E-3,.10452E-3,0
STARLINK-37129,2026-055N,2026-06-22T12:17:38.110560,15.34400152,.00011966,53.1587,190.6799,76.0220,284.0916,0,U,68274,999,1600,.50796106E-3,.16825E-3,0
STARLINK-37123,2026-055P,2026-06-22T07:27:09.795456,15.34390463,.00011363,53.1588,191.5533,81.4906,278.6225,0,U,68275,999,1597,.32663222E-3,.10672E-3,0
STARLINK-37125,2026-055Q,2026-06-22T10:31:43.140864,15.34405026,.00011546,53.1581,190.9309,69.4617,290.6510,0,U,68276,999,1599,.45120719E-3,.14901E-3,0
STARLINK-36989,2026-055R,2026-06-22T07:12:00.359424,15.34375202,.00013751,53.1590,191.4710,88.9578,271.1582,0,U,68277,999,1597,.30048748E-3,.9782E-4,0
STARLINK-36982,2026-055S,2026-06-22T10:22:38.147808,15.34393637,.00010199,53.1573,190.9012,83.3577,276.7541,0,U,68278,999,1599,.53757993E-3,.17826E-3,0
STARLINK-36934,2026-055T,2026-06-22T07:21:06.136992,15.34396319,.00010754,53.1596,191.5309,98.8956,261.2169,0,U,68279,999,1597,.30571824E-3,.9966E-4,0
STARLINK-37070,2026-055U,2026-06-22T11:10:58.527552,15.34402394,.00007993,53.1574,190.3673,69.8933,290.2155,0,U,68280,999,1600,.53572103E-3,.17768E-3,0
STARLINK-37134,2026-055V,2026-06-22T11:05:44.918016,15.34398575,.00009248,53.1584,192.5013,90.1816,269.9292,0,U,68281,999,1597,.42526399E-3,.14018E-3,0
STARLINK-37160,2026-055W,2026-06-22T10:04:26.814720,15.34402539,.00007969,53.1571,190.7928,113.3674,246.7412,0,U,68282,999,1599,.45457031E-3,.15014E-3,0
STARLINK-37124,2026-055X,2026-06-22T08:07:14.809440,15.34399468,.0001186,53.1577,193.1447,90.4492,269.6646,0,U,68283,999,1595,.43215966E-3,.14253E-3,0
STARLINK-37159,2026-055Y,2026-06-22T10:20:26.362752,15.34393631,.00008235,53.1567,193.0389,92.0590,268.0507,0,U,68284,999,1596,.5799556E-3,.19265E-3,0
STARLINK-36725,2026-055Z,2026-06-22T08:16:20.187840,15.34394291,.00005547,53.1557,193.1811,63.0812,297.0247,0,U,68285,999,1595,.29029659E-3,.9443E-4,0
STARLINK-36998,2026-055AA,2026-06-22T08:21:33.859584,15.34398809,.00009706,53.1573,191.0562,84.1400,275.9713,0,U,68286,999,1599,.49970009E-3,.16544E-3,0
STARLINK-37165,2026-055AB,2026-06-22T08:12:28.654848,15.34397698,.00014323,53.1570,191.0144,85.2163,274.9003,0,U,68287,999,1598,.36357998E-3,.11927E-3,0
STARLINK-37016,2026-055AC,2026-06-22T12:20:39.989472,15.34401728,.00011137,53.1579,190.6966,87.2314,272.8816,0,U,68288,999,1600,.44363459E-3,.14643E-3,0
STARLINK-37010,2026-055AD,2026-06-22T20:03:35.252352,15.34401227,.00020854,53.1566,189.1299,39.7263,320.3892,0,U,68289,999,1605,.57574884E-3,.19127E-3,0
STARLINK-37151,2026-055AE,2026-06-22T07:18:04.234752,15.34393346,.00012749,53.1598,191.5131,96.7848,263.3299,0,U,68290,999,1597,.34328432E-3,.11237E-3,0
STRIX-6,2026-056A,2026-06-22T17:20:44.054304,15.00194707,.00164185,50.2840,323.6286,264.8463,95.0612,0,U,68291,999,1410,.20911205E-3,.2384E-4,0
STARLINK-37107,2026-057A,2026-06-22T15:11:57.135552,15.33536244,.00027526,97.2853,300.3392,96.2877,263.8679,0,U,68294,999,1474,.19155032E-2,.62461E-3,0
STARLINK-37147,2026-057B,2026-06-22T07:26:03.843744,15.33445829,.00013433,97.2842,300.0122,90.1764,269.9632,0,U,68295,999,1469,.38702767E-3,.12441E-3,0
STARLINK-37142,2026-057C,2026-06-22T14:56:19.395744,15.33435297,.00012312,97.2887,300.3576,98.7267,261.4115,0,U,68296,999,1474,.7265934E-3,.23448E-3,0
STARLINK-37115,2026-057D,2026-06-22T14:25:02.072352,15.33410123,.00011834,97.2852,300.2330,73.5435,286.5938,0,U,68297,999,1473,.56270887E-3,.18115E-3,0
STARLINK-36355,2026-057E,2026-06-22T20:00:01.999872,15.33424308,.00014904,97.2845,300.4621,79.9951,138.6692,0,U,68298,999,588,.1375764E-2,.44574E-3,0
STARLINK-37118,2026-057F,2026-06-22T14:28:54.842592,15.33452020,.00011342,97.2866,300.2269,80.5684,279.5687,0,U,68299,999,1473,.51990469E-3,.1675E-3,0
STARLINK-36875,2026-057G,2026-06-22T14:13:15.217536,15.33451585,.00010764,97.2852,300.2429,95.9283,264.2082,0,U,68300,999,1473,.34490577E-3,.11078E-3,0
STARLINK-37099,2026-057H,2026-06-22T14:17:10.362048,15.33448537,.00015174,97.2851,300.2392,88.7881,271.3535,0,U,68301,999,1473,.55051966E-3,.17742E-3,0
STARLINK-37007,2026-057J,2026-06-22T20:13:29.190144,15.33469923,.00010604,97.2848,300.5145,86.6331,273.5033,0,U,68302,999,1477,.6262882E-3,.20214E-3,0
STARLINK-36300,2026-057K,2026-06-22T07:37:48.416736,15.33451580,.00007278,97.2853,300.0052,101.9102,258.2223,0,U,68303,999,1469,.78049431E-3,.25211E-3,0
STARLINK-36849,2026-057L,2026-06-22T08:16:57.620640,15.33458253,.00013742,97.2835,299.9656,82.6978,277.4420,0,U,68304,999,1469,.83970436E-3,.27143E-3,0
STARLINK-36277,2026-057M,2026-06-22T14:42:28.789344,15.33465780,.00023622,97.2853,299.2976,100.0048,260.1461,0,U,68305,999,1467,.1120729E-2,.36306E-3,0
STARLINK-36307,2026-057N,2026-06-22T18:43:25.234752,15.33445492,.00010248,97.2840,300.4433,78.9823,281.1535,0,U,68306,999,1476,.59161365E-3,.19073E-3,0
STARLINK-36264,2026-057P,2026-06-22T15:04:09.094656,15.33462407,.00000962,97.2854,300.3476,313.2899,46.8335,0,U,68307,999,1474,.48335594E-3,.1557E-3,0
STARLINK-37138,2026-057Q,2026-06-22T14:51:39.869280,15.36977943,.00006258,97.2848,300.2027,68.4444,291.6867,0,U,68308,999,1473,.82354086E-3,.29785E-3,0
